ORBCOMM FM20            
1 25416U 98046D   24359.53771826  .00002484  00000+0  88640-3 0  9993
2 25416  44.9942 287.9636 0001153 356.0839   4.0000 14.36491408379145
ORBCOMM FM16            
1 25417U 98046E   24359.79526903  .00003161  00000+0  10836-2 0  9990
2 25417  44.9934 280.4404 0003118 122.7314 237.3835 14.37909944379368
ORBCOMM FM15            
1 25418U 98046F   24359.52196351  .00003093  00000+0  10682-2 0  9995
2 25418  44.9969 286.3827 0002595 122.7467 237.3632 14.37590461379105
ORBCOMM FM14            
1 25419U 98046G   24359.85786735  .00003187  00000+0  10928-2 0  9990
2 25419  44.9957 283.4871 0001835 100.1718 259.9337 14.37884853379333
ORBCOMM FM13            
1 25420U 98046H   24359.55336427  .00003002  00000+0  10537-2 0  9990
2 25420  44.9976 291.3311 0003743 103.9568 256.1696 14.36842369378114
ORBCOMM FM21            
1 25475U 98053A   24359.52591064  .00002747  00000+0  97263-3 0  9992
2 25475  45.0094  16.2223 0001609 302.0410  58.0281 14.36627824372121
ORBCOMM FM22            
1 25476U 98053B   24359.46933618  .00003229  00000+0  11160-2 0  9998
2 25476  45.0087  12.6224 0001972   4.6653 355.4213 14.37454508372129
ORBCOMM FM23            
1 25477U 98053C   24359.75322732  .00002991  00000+0  10526-2 0  9990
2 25477  45.0094  17.4692 0001523 339.3360  20.7426 14.36735081372614
